[
    {
        "Altitude(m)": 617710.6486486277,
        "Argument of Periapsis(deg)": 0.0,
        "Eccentricity": 0.0,
        "Inclination(deg)": 60.0,
        "Latitude(deg)": -41.10268447357362,
        "Longitude(deg)": 159.96657844279105,
        "Mean Anomaly(deg)": -49.09089999999999,
        "RAAN(deg)": 290.0,
        "Satellite Name": "Test1 1295",
        "Satellite Number": 1295,
        "Semi-Major Axis(m)": 6980739.136638005,
        "Time(s)": 0
    },
    {
        "Altitude(m)": 617517.9473101881,
        "Argument of Periapsis(deg)": 0.00010418945913296404,
        "Eccentricity": 0.0,
        "Inclination(deg)": 60.0,
        "Latitude(deg)": -40.636891945736444,
        "Longitude(deg)": 160.46337307201102,
        "Mean Anomaly(deg)": -48.470793854538144,
        "RAAN(deg)": 289.99957995086027,
        "Satellite Name": "Test1 1295",
        "Satellite Number": 1295,
        "Semi-Major Axis(m)": 6980739.136638005,
        "Time(s)": 10
    },
    {
        "Altitude(m)": 617324.2688624859,
        "Argument of Periapsis(deg)": 0.0002083789182659281,
        "Eccentricity": 0.0,
        "Inclination(deg)": 60.0,
        "Latitude(deg)": -40.16857408710185,
        "Longitude(deg)": 160.95273983911585,
        "Mean Anomaly(deg)": -47.85068770907629,
        "RAAN(deg)": 289.99915990172053,
        "Satellite Name": "Test1 1295",
        "Satellite Number": 1295,
        "Semi-Major Axis(m)": 6980739.136638005,
        "Time(s)": 20
    },
    {
        "Altitude(m)": 617129.6872862437,
        "Argument of Periapsis(deg)": 0.00031256837739889213,
        "Eccentricity": 0.0,
        "Inclination(deg)": 60.0,
        "Latitude(deg)": -39.69780402970755,
        "Longitude(deg)": 161.4348631974465,
        "Mean Anomaly(deg)": -47.230581563614486,
        "RAAN(deg)": 289.9987398525808,
        "Satellite Name": "Test1 1295",
        "Satellite Number": 1295,
        "Semi-Major Axis(m)": 6980739.136638005,
        "Time(s)": 30
    },
    {
        "Altitude(m)": 616934.2768109046,
        "Argument of Periapsis(deg)": 0.0004167578365318562,
        "Eccentricity": 0.0,
        "Inclination(deg)": 60.0,
        "Latitude(deg)": -39.22465268292466,
        "Longitude(deg)": 161.90992462218614,
        "Mean Anomaly(deg)": -46.61047541815263,
        "RAAN(deg)": 289.99831980344106,
        "Satellite Name": "Test1 1295",
        "Satellite Number": 1295,
        "Semi-Major Axis(m)": 6980739.136638005,
        "Time(s)": 40
    },
    {
        "Altitude(m)": 616738.1118821782,
        "Argument of Periapsis(deg)": 0.0005209472956648203,
        "Eccentricity": 0.0,
        "Inclination(deg)": 60.0,
        "Latitude(deg)": -38.74918880585165,
        "Longitude(deg)": 162.378101587163,
        "Mean Anomaly(deg)": -45.990369272690785,
        "RAAN(deg)": 289.9978997543013,
        "Satellite Name": "Test1 1295",
        "Satellite Number": 1295,
        "Semi-Major Axis(m)": 6980739.136638005,
        "Time(s)": 50
    },
    {
        "Altitude(m)": 616541.267129448,
        "Argument of Periapsis(deg)": 0.0006251367547977843,
        "Eccentricity": 0.0,
        "Inclination(deg)": 60.0,
        "Latitude(deg)": -38.271479078226,
        "Longitude(deg)": 162.83956806540735,
        "Mean Anomaly(deg)": -45.37026312722893,
        "RAAN(deg)": 289.99747970516154,
        "Satellite Name": "Test1 1295",
        "Satellite Number": 1295,
        "Semi-Major Axis(m)": 6980739.136638005,
        "Time(s)": 60
    },
    {
        "Altitude(m)": 616343.8173330849,
        "Argument of Periapsis(deg)": 0.0007293262139307483,
        "Eccentricity": 0.0,
        "Inclination(deg)": 60.0,
        "Latitude(deg)": -37.79158816978179,
        "Longitude(deg)": 163.29449503946392,
        "Mean Anomaly(deg)": -44.75015698176713,
        "RAAN(deg)": 289.9970596560218,
        "Satellite Name": "Test1 1295",
        "Satellite Number": 1295,
        "Semi-Major Axis(m)": 6980739.136638005,
        "Time(s)": 70
    },
    {
        "Altitude(m)": 616145.8373916696,
        "Argument of Periapsis(deg)": 0.0008335156730637124,
        "Eccentricity": 0.0,
        "Inclination(deg)": 60.0,
        "Latitude(deg)": -37.30957880799481,
        "Longitude(deg)": 163.74304950754706,
        "Mean Anomaly(deg)": -44.13005083630527,
        "RAAN(deg)": 289.99663960688207,
        "Satellite Name": "Test1 1295",
        "Satellite Number": 1295,
        "Semi-Major Axis(m)": 6980739.136638005,
        "Time(s)": 80
    },
    {
        "Altitude(m)": 615947.4022891369,
        "Argument of Periapsis(deg)": 0.0009377051321966765,
        "Eccentricity": 0.0,
        "Inclination(deg)": 60.0,
        "Latitude(deg)": -36.82551184417908,
        "Longitude(deg)": 164.1853950103238,
        "Mean Anomaly(deg)": -43.50994469084342,
        "RAAN(deg)": 289.99621955774234,
        "Satellite Name": "Test1 1295",
        "Satellite Number": 1295,
        "Semi-Major Axis(m)": 6980739.136638005,
        "Time(s)": 90
    },
    {
        "Altitude(m)": 615748.5870618686,
        "Argument of Periapsis(deg)": 0.0010418945913296407,
        "Eccentricity": 0.0,
        "Inclination(deg)": 60.0,
        "Latitude(deg)": -36.33944631790149,
        "Longitude(deg)": 164.62169216457585,
        "Mean Anomaly(deg)": -42.889838545381565,
        "RAAN(deg)": 289.9957995086026,
        "Satellite Name": "Test1 1295",
        "Satellite Number": 1295,
        "Semi-Major Axis(m)": 6980739.136638005,
        "Time(s)": 100
    },
    {
        "Altitude(m)": 615549.4667657274,
        "Argument of Periapsis(deg)": 0.0011460840504626045,
        "Eccentricity": 0.0,
        "Inclination(deg)": 60.0,
        "Latitude(deg)": -35.85143951969315,
        "Longitude(deg)": 165.05209769005702,
        "Mean Anomaly(deg)": -42.26973239991977,
        "RAAN(deg)": 289.99537945946287,
        "Satellite Name": "Test1 1295",
        "Satellite Number": 1295,
        "Semi-Major Axis(m)": 6980739.136638005,
        "Time(s)": 110
    },
    {
        "Altitude(m)": 615350.1164430871,
        "Argument of Periapsis(deg)": 0.0012502735095955685,
        "Eccentricity": 0.0,
        "Inclination(deg)": 60.0,
        "Latitude(deg)": -35.36154705205144,
        "Longitude(deg)": 165.47676495455426,
        "Mean Anomaly(deg)": -41.649626254457914,
        "RAAN(deg)": 289.99495941032313,
        "Satellite Name": "Test1 1295",
        "Satellite Number": 1295,
        "Semi-Major Axis(m)": 6980739.136638005,
        "Time(s)": 120
    },
    {
        "Altitude(m)": 615150.6110898055,
        "Argument of Periapsis(deg)": 0.0013544629687285324,
        "Eccentricity": 0.0,
        "Inclination(deg)": 60.0,
        "Latitude(deg)": -34.86982288872914,
        "Longitude(deg)": 165.89584452360356,
        "Mean Anomaly(deg)": -41.02952010899616,
        "RAAN(deg)": 289.99453936118334,
        "Satellite Name": "Test1 1295",
        "Satellite Number": 1295,
        "Semi-Major Axis(m)": 6980739.136638005,
        "Time(s)": 130
    },
    {
        "Altitude(m)": 614951.0256222488,
        "Argument of Periapsis(deg)": 0.0014586524278614966,
        "Eccentricity": 0.0,
        "Inclination(deg)": 60.0,
        "Latitude(deg)": -34.376319432311384,
        "Longitude(deg)": 166.30948320137213,
        "Mean Anomaly(deg)": -40.40941396353431,
        "RAAN(deg)": 289.9941193120436,
        "Satellite Name": "Test1 1295",
        "Satellite Number": 1295,
        "Semi-Major Axis(m)": 6980739.136638005,
        "Time(s)": 140
    },
    {
        "Altitude(m)": 614751.4348442833,
        "Argument of Periapsis(deg)": 0.0015628418869944607,
        "Eccentricity": 0.0,
        "Inclination(deg)": 60.0,
        "Latitude(deg)": -33.881087570098664,
        "Longitude(deg)": 166.71782458788985,
        "Mean Anomaly(deg)": -39.78930781807251,
        "RAAN(deg)": 289.99369926290393,
        "Satellite Name": "Test1 1295",
        "Satellite Number": 1295,
        "Semi-Major Axis(m)": 6980739.136638005,
        "Time(s)": 150
    },
    {
        "Altitude(m)": 614551.913414339,
        "Argument of Periapsis(deg)": 0.0016670313461274247,
        "Eccentricity": 0.0,
        "Inclination(deg)": 60.0,
        "Latitude(deg)": -33.3841767283076,
        "Longitude(deg)": 167.12100963924863,
        "Mean Anomaly(deg)": -39.169201672610654,
        "RAAN(deg)": 289.99327921376414,
        "Satellite Name": "Test1 1295",
        "Satellite Number": 1295,
        "Semi-Major Axis(m)": 6980739.136638005,
        "Time(s)": 160
    },
    {
        "Altitude(m)": 614352.5358124939,
        "Argument of Periapsis(deg)": 0.0017712208052603888,
        "Eccentricity": 0.0,
        "Inclination(deg)": 60.0,
        "Latitude(deg)": -32.88563492460981,
        "Longitude(deg)": 167.5191757174334,
        "Mean Anomaly(deg)": -38.5490955271489,
        "RAAN(deg)": 289.9928591646244,
        "Satellite Name": "Test1 1295",
        "Satellite Number": 1295,
        "Semi-Major Axis(m)": 6980739.136638005,
        "Time(s)": 170
    },
    {
        "Altitude(m)": 614153.3763076374,
        "Argument of Periapsis(deg)": 0.001875410264393353,
        "Eccentricity": 0.0,
        "Inclination(deg)": 60.0,
        "Latitude(deg)": -32.38550881903725,
        "Longitude(deg)": 167.91245715511138,
        "Mean Anomaly(deg)": -37.92898938168705,
        "RAAN(deg)": 289.9924391154847,
        "Satellite Name": "Test1 1295",
        "Satellite Number": 1295,
        "Semi-Major Axis(m)": 6980739.136638005,
        "Time(s)": 180
    },
    {
        "Altitude(m)": 613954.508924685,
        "Argument of Periapsis(deg)": 0.0019795997235263173,
        "Eccentricity": 0.0,
        "Inclination(deg)": 60.0,
        "Latitude(deg)": -31.883843763281764,
        "Longitude(deg)": 168.30098582212779,
        "Mean Anomaly(deg)": -37.30888323622524,
        "RAAN(deg)": 289.99201906634494,
        "Satellite Name": "Test1 1295",
        "Satellite Number": 1295,
        "Semi-Major Axis(m)": 6980739.136638005,
        "Time(s)": 190
    }
]